OBJECT_NAME,OBJECT_ID,EPOCH,MEAN_MOTION,ECCENTRICITY,INCLINATION,RA_OF_ASC_NODE,ARG_OF_PERICENTER,MEAN_ANOMALY,EPHEMERIS_TYPE,CLASSIFICATION_TYPE,NORAD_CAT_ID,ELEMENT_SET_NO,REV_AT_EPOCH,BSTAR,MEAN_MOTION_DOT,MEAN_MOTION_DDOT
STARLINK-11313 [DTC],2024-175N,2026-04-26T11:51:46.896192,15.69708643,.000115,53.1583,180.6803,70.1038,290.0103,0,U,61255,999,9087,.19312E-4,.1751E-4,0
STARLINK-32431,2024-175P,2026-04-25T20:20:11.929920,15.30192354,.00011647,53.1614,334.9965,92.0752,268.0382,0,U,61256,999,8867,.6857937E-5,-.156E-5,0
STARLINK-32432,2024-175Q,2026-04-26T07:23:08.163168,15.30186147,.0001188,53.1605,332.8921,84.9293,275.1843,0,U,61257,999,8874,-.17111E-5,-.41E-5,0
STARLINK-32382,2024-175R,2026-04-26T07:27:42.661152,15.30152493,.0001288,53.1614,332.9130,106.2836,253.8307,0,U,61258,999,8874,.31376E-3,.8931E-4,0
STARLINK-32435,2024-175S,2026-04-25T22:14:00.370752,15.30187236,.00009811,53.1602,334.7797,120.0070,240.1028,0,U,61259,999,8868,.10601489E-4,-.45E-6,0
STARLINK-32474,2024-175T,2026-04-26T07:09:27.313056,15.30193526,.0001186,53.1617,332.8318,98.0911,262.0224,0,U,61260,999,8874,.36583E-4,.724E-5,0
STARLINK-32447,2024-175U,2026-04-26T07:14:00.706848,15.30200635,.0001476,53.1629,332.8520,101.6481,258.4685,0,U,61261,999,8874,.14109E-3,.3822E-4,0
STARLINK-32446,2024-175V,2026-04-26T07:33:46.385280,15.30187080,.0001101,53.1607,332.9401,102.2725,257.8399,0,U,61262,999,8874,.96162E-5,-.74E-6,0
HULIANWAN GAOGUI-03 (HG-03),2024-181A,2026-04-24T21:50:29.724000,1.00270573,.00007658,0.0460,20.0221,103.8251,339.5815,0,U,61503,999,629,0,-.255E-5,0
STARLINK-32174,2024-183A,2026-04-26T10:34:43.862016,15.30191488,.0001053,53.1600,267.8406,60.4946,299.6159,0,U,61509,999,8714,-.69139E-5,-.564E-5,0
STARLINK-32139,2024-183B,2026-04-26T10:44:38.980032,15.30185093,.0001246,53.1603,280.6754,101.8760,258.2380,0,U,61510,999,8696,.15445E-6,-.355E-5,0
STARLINK-32140,2024-183C,2026-04-26T10:20:19.997664,15.30185625,.0001046,53.1600,280.5684,101.7082,258.4037,0,U,61511,999,8696,.18068E-6,-.354E-5,0
STARLINK-32201,2024-183D,2026-04-26T10:28:39.261792,15.30187869,.0001145,53.1613,267.8186,76.9007,283.2121,0,U,61512,999,8714,.3682E-4,.731E-5,0
STARLINK-32030,2024-183E,2026-04-25T17:39:10.767456,15.30191869,.00010782,53.1614,284.0544,71.4648,288.6470,0,U,61513,999,8685,-.22491788E-4,-.1025E-4,0
STARLINK-31837,2024-183F,2026-04-25T18:54:58.995648,15.30180470,.00011936,53.1597,283.6572,100.9705,259.1430,0,U,61514,999,8686,.80741782E-4,.2032E-4,0
STARLINK-32136,2024-183G,2026-04-26T11:07:26.742144,15.30183795,.0001106,53.1600,280.7723,74.1284,285.9839,0,U,61515,999,8696,.39238E-5,-.243E-5,0
STARLINK-32047,2024-183H,2026-04-25T20:24:31.328640,15.30161753,.00010943,53.1598,283.3348,85.7690,274.3436,0,U,61516,999,8687,-.94393574E-4,-.315E-4,0
STARLINK-31756,2024-183J,2026-04-26T11:30:13.298112,15.30189149,.0000941,53.1601,280.8133,67.0111,293.0989,0,U,61517,999,8696,.21109E-5,-.296E-5,0
STARLINK-32172,2024-183K,2026-04-25T21:53:58.347168,15.30194112,.00011487,53.1608,283.0105,101.8310,258.2820,0,U,61518,999,8688,.24040775E-4,.353E-5,0
STARLINK-32338,2024-183L,2026-04-22T21:36:53.657856,15.30188025,.00014323,53.1605,296.9192,100.5223,259.5939,0,U,61519,999,8642,-.6163731E-5,-.542E-5,0
STARLINK-32306,2024-183M,2026-04-26T10:11:12.860160,15.30187964,.000121,53.1609,280.5154,89.9788,270.1351,0,U,61520,999,8696,.17921E-4,.172E-5,0
STARLINK-32297,2024-183N,2026-04-26T11:40:44.361120,15.30182318,.0000909,53.1600,280.1901,68.2970,291.8127,0,U,61521,999,8697,-.11997E-3,-.3908E-4,0
STARLINK-32260,2024-183P,2026-04-26T11:36:08.936064,15.30187442,.0000866,53.1597,280.1723,92.1080,268.0020,0,U,61522,999,8697,-.56654E-6,-.376E-5,0
STARLINK-32305,2024-183Q,2026-04-26T10:49:10.739136,15.30217704,.0000755,53.1597,280.6838,82.8579,277.2508,0,U,61523,999,8696,.69428E-5,-.153E-5,0
STARLINK-32296,2024-183R,2026-04-26T11:31:35.643360,15.30185905,.0001121,53.1600,280.1516,83.8466,276.2663,0,U,61524,999,8697,.10567E-4,-.46E-6,0
STARLINK-32298,2024-183S,2026-04-26T11:27:01.581696,15.30192399,.0001049,53.1601,280.1320,79.4069,280.7049,0,U,61525,999,8697,.23395E-4,.334E-5,0
STARLINK-32293,2024-183T,2026-04-26T11:22:37.805952,15.30192804,.0001041,53.1593,280.8198,62.5746,297.5360,0,U,61526,999,8696,.32969E-4,.617E-5,0
STARLINK-32313,2024-183U,2026-04-26T11:13:31.266336,15.30185644,.0001263,53.1606,280.7829,79.8615,280.2528,0,U,61527,999,8696,-.70485E-4,-.2445E-4,0
STARLINK-32319,2024-183V,2026-04-26T11:21:07.134336,15.30194016,.000116,53.1578,280.8140,64.7070,295.4050,0,U,61528,999,8696,.25644E-3,.7242E-4,0
STARLINK-32351,2024-183W,2026-04-26T10:30:03.971808,15.30190096,.0000942,53.1616,277.7791,90.4268,269.6840,0,U,61529,999,8700,-.43774E-4,-.1655E-4,0
