STARLINK-11313 [DTC]    
1 61255U 24175N   26116.49429278  .00001751  00000+0  19312-4 0  9992
2 61255  53.1583 180.6803 0001150  70.1038 290.0103 15.69708643 90876
STARLINK-32431          
1 61256U 24175P   26115.84736030 -.00000156  00000+0  68579-5 0  9997
2 61256  53.1614 334.9965 0001164  92.0752 268.0382 15.30192354 88679
STARLINK-32432          
1 61257U 24175Q   26116.30773337 -.00000410  00000+0 -17111-5 0  9991
2 61257  53.1605 332.8921 0001188  84.9293 275.1843 15.30186147 88747
STARLINK-32382          
1 61258U 24175R   26116.31091043  .00008931  00000+0  31376-3 0  9991
2 61258  53.1614 332.9130 0001288 106.2836 253.8307 15.30152493 88748
STARLINK-32435          
1 61259U 24175S   26115.92639318 -.00000045  00000+0  10601-4 0  9999
2 61259  53.1602 334.7797 0000981 120.0070 240.1028 15.30187236 88683
STARLINK-32474          
1 61260U 24175T   26116.29823279  .00000724  00000+0  36583-4 0  9993
2 61260  53.1617 332.8318 0001186  98.0911 262.0224 15.30193526 88742
STARLINK-32447          
1 61261U 24175U   26116.30139707  .00003822  00000+0  14109-3 0  9993
2 61261  53.1629 332.8520 0001476 101.6481 258.4685 15.30200635 88746
STARLINK-32446          
1 61262U 24175V   26116.31512020 -.00000074  00000+0  96162-5 0  9996
2 61262  53.1607 332.9401 0001101 102.2725 257.8399 15.30187080 88748
HULIANWAN GAOGUI-03 (H*)
1 61503U 24181A   26114.91006625 -.00000255  00000+0  00000+0 0  9995
2 61503   0.0460  20.0221 0000765 103.8251 339.5815  1.00270573  6298
STARLINK-32174          
1 61509U 24183A   26116.44078544 -.00000564  00000+0 -69139-5 0  9990
2 61509  53.1600 267.8406 0001053  60.4946 299.6159 15.30191488 87140
STARLINK-32139          
1 61510U 24183B   26116.44767338 -.00000355  00000+0  15445-6 0  9997
2 61510  53.1603 280.6754 0001246 101.8760 258.2380 15.30185093 86963
STARLINK-32140          
1 61511U 24183C   26116.43078701 -.00000354  00000+0  18068-6 0  9999
2 61511  53.1600 280.5684 0001046 101.7082 258.4037 15.30185625 86968
STARLINK-32201          
1 61512U 24183D   26116.43656553  .00000731  00000+0  36820-4 0  9999
2 61512  53.1613 267.8186 0001145  76.9007 283.2121 15.30187869 87141
STARLINK-32030          
1 61513U 24183E   26115.73554129 -.00001025  00000+0 -22492-4 0  9997
2 61513  53.1614 284.0544 0001078  71.4648 288.6470 15.30191869 86856
STARLINK-31837          
1 61514U 24183F   26115.78818282  .00002032  00000+0  80742-4 0  9995
2 61514  53.1597 283.6572 0001193 100.9705 259.1430 15.30180470 86869
STARLINK-32136          
1 61515U 24183G   26116.46350396 -.00000243  00000+0  39238-5 0  9997
2 61515  53.1600 280.7723 0001106  74.1284 285.9839 15.30183795 86963
STARLINK-32047          
1 61516U 24183H   26115.85036260 -.00003150  00000+0 -94394-4 0  9995
2 61516  53.1598 283.3348 0001094  85.7690 274.3436 15.30161753 86872
STARLINK-31756          
1 61517U 24183J   26116.47932058 -.00000296  00000+0  21109-5 0  9997
2 61517  53.1601 280.8133 0000941  67.0111 293.0989 15.30189149 86963
STARLINK-32172          
1 61518U 24183K   26115.91248087  .00000353  00000+0  24041-4 0  9998
2 61518  53.1608 283.0105 0001148 101.8310 258.2820 15.30194112 86887
STARLINK-32338          
1 61519U 24183L   26112.90062104 -.00000542  00000+0 -61637-5 0  9994
2 61519  53.1605 296.9192 0001432 100.5223 259.5939 15.30188025 86420
STARLINK-32306          
1 61520U 24183M   26116.42445440  .00000172  00000+0  17921-4 0  9998
2 61520  53.1609 280.5154 0001210  89.9788 270.1351 15.30187964 86960
STARLINK-32297          
1 61521U 24183N   26116.48662455 -.00003908  00000+0 -11997-3 0  9990
2 61521  53.1600 280.1901 0000909  68.2970 291.8127 15.30182318 86975
STARLINK-32260          
1 61522U 24183P   26116.48343676 -.00000376  00000+0 -56654-6 0  9990
2 61522  53.1597 280.1723 0000866  92.1080 268.0020 15.30187442 86974
STARLINK-32305          
1 61523U 24183Q   26116.45081874 -.00000153  00000+0  69428-5 0  9991
2 61523  53.1597 280.6838 0000755  82.8579 277.2508 15.30217704 86960
STARLINK-32296          
1 61524U 24183R   26116.48027365 -.00000046  00000+0  10567-4 0  9990
2 61524  53.1600 280.1516 0001121  83.8466 276.2663 15.30185905 86977
STARLINK-32298          
1 61525U 24183S   26116.47710164  .00000334  00000+0  23395-4 0  9998
2 61525  53.1601 280.1320 0001049  79.4069 280.7049 15.30192399 86974
STARLINK-32293          
1 61526U 24183T   26116.47404868  .00000617  00000+0  32969-4 0  9991
2 61526  53.1593 280.8198 0001041  62.5746 297.5360 15.30192804 86964
STARLINK-32313          
1 61527U 24183U   26116.46772299 -.00002445  00000+0 -70485-4 0  9995
2 61527  53.1606 280.7829 0001263  79.8615 280.2528 15.30185644 86961
STARLINK-32319          
1 61528U 24183V   26116.47299924  .00007242  00000+0  25644-3 0  9990
2 61528  53.1578 280.8140 0001160  64.7070 295.4050 15.30194016 86962
STARLINK-32351          
1 61529U 24183W   26116.43754597 -.00001655  00000+0 -43774-4 0  9998
2 61529  53.1616 277.7791 0000942  90.4268 269.6840 15.30190096 87005
